ONEWEB-0205             
1 48226U 21031S   24193.90648091 -.00000133  00000+0 -39328-3 0  9991
2 48226  87.8947  70.0064 0001597  83.2304 276.9008 13.14502337155615
ONEWEB-0206             
1 48227U 21031T   24193.57505426  .00000223  00000+0  56635-3 0  9997
2 48227  87.8946  70.0610 0001650  84.5275 275.6043 13.14503064155526
ONEWEB-0182             
1 48228U 21031U   24193.57029379  .00000206  00000+0  52107-3 0  9997
2 48228  87.8947  70.0903 0001914  84.1607 275.9741 13.14501754155747
ONEWEB-0186             
1 48229U 21031V   24193.88587127  .00000188  00000+0  47330-3 0  9993
2 48229  87.8949  69.9912 0001761  78.5574 281.5753 13.14502844155722
ONEWEB-0181             
1 48230U 21031W   24193.17860321  .00000233  00000+0  59295-3 0  9991
2 48230  87.8948  70.2018 0001702  76.4066 283.7253 13.14502400155483
ONEWEB-0188             
1 48231U 21031X   24193.90172016 -.00000077  00000+0 -24349-3 0  9990
2 48231  87.8948  70.0532 0001755  80.8355 279.2973 13.14503902155488
ONEWEB-0220             
1 48232U 21031Y   24193.18018787  .00000277  00000+0  71281-3 0  9992
2 48232  87.8941  70.1601 0001492  87.8967 272.2333 13.14502446155658
ONEWEB-0165             
1 48233U 21031Z   24193.89378965  .00000087  00000+0  20126-3 0  9999
2 48233  87.8949  70.0362 0001617  79.2357 280.8955 13.14501302155708
